{
  "type": "FeatureCollection",
  "features": [
    {
      "type": "Feature",
      "properties": {
        "norad_id": 36167,
        "name": "FENGYUN 1C DEB",
        "group": "fengyun-1c-debris",
        "lat": -16.466290074420048,
        "lon": -98.06544612102404,
        "alt_km": 753.0469703172266,
        "timestamp": "2025-12-17T21:39:45.973634+00:00",
        "meta_object_name": "FENGYUN 1C DEB",
        "meta_object_id": "1999-025DSQ",
        "meta_epoch": "2025-12-17T11:47:54.147552",
        "meta_mean_motion": 14.49287651,
        "meta_eccentricity": 0.00687849,
        "meta_inclination": 98.8138,
        "meta_ra_of_asc_node": 258.8768,
        "meta_arg_of_pericenter": 229.85,
        "meta_mean_anomaly": 129.6655,
        "meta_ephemeris_type": 0,
        "meta_classification_type": "U",
        "meta_norad_cat_id": 36167,
        "meta_element_set_no": 999,
        "meta_rev_at_epoch": 67348,
        "meta_bstar": 0.00077424879,
        "meta_mean_motion_dot": 2.993e-05,
        "meta_mean_motion_ddot": 0,
        "tle_line1": "1 36167U 99025DSQ 25351.49159893  .00002993  00000+0  77425-3 0  9992",
        "tle_line2": "2 36167  98.8138 258.8768 0068784 229.8500 129.6655 14.49287651673484"
      },
      "geometry": {
        "type": "Point",
        "coordinates": [
          -98.06544612102404,
          -16.466290074420048
        ]
      }
    },
    {
      "type": "Feature",
      "properties": {
        "norad_id": 36173,
        "name": "FENGYUN 1C DEB",
        "group": "fengyun-1c-debris",
        "lat": -46.15679917378252,
        "lon": -42.6530714501901,
        "alt_km": 898.9414036120961,
        "timestamp": "2025-12-17T21:39:45.973643+00:00",
        "meta_object_name": "FENGYUN 1C DEB",
        "meta_object_id": "1999-025DSW",
        "meta_epoch": "2025-12-13T15:06:11.838816",
        "meta_mean_motion": 14.25174988,
        "meta_eccentricity": 0.01471409,
        "meta_inclination": 98.2142,
        "meta_ra_of_asc_node": 304.6937,
        "meta_arg_of_pericenter": 182.5109,
        "meta_mean_anomaly": 177.535,
        "meta_ephemeris_type": 0,
        "meta_classification_type": "U",
        "meta_norad_cat_id": 36173,
        "meta_element_set_no": 999,
        "meta_rev_at_epoch": 59103,
        "meta_bstar": 0.00034958587,
        "meta_mean_motion_dot": 8.78e-06,
        "meta_mean_motion_ddot": 0,
        "tle_line1": "1 36173U 99025DSW 25347.62930369  .00000878  00000+0  34959-3 0  9999",
        "tle_line2": "2 36173  98.2142 304.6937 0147140 182.5109 177.5350 14.25174988591038"
      },
      "geometry": {
        "type": "Point",
        "coordinates": [
          -42.6530714501901,
          -46.15679917378252
        ]
      }
    },
    {
      "type": "Feature",
      "properties": {
        "norad_id": 36180,
        "name": "FENGYUN 1C DEB",
        "group": "fengyun-1c-debris",
        "lat": -26.381682325202906,
        "lon": -128.92990128037945,
        "alt_km": 977.3854828275271,
        "timestamp": "2025-12-17T21:39:45.973652+00:00",
        "meta_object_name": "FENGYUN 1C DEB",
        "meta_object_id": "1999-025DTD",
        "meta_epoch": "2025-12-05T21:21:22.276224",
        "meta_mean_motion": 14.20680074,
        "meta_eccentricity": 0.02106275,
        "meta_inclination": 98.4572,
        "meta_ra_of_asc_node": 43.7979,
        "meta_arg_of_pericenter": 50.8055,
        "meta_mean_anomaly": 311.1621,
        "meta_ephemeris_type": 0,
        "meta_classification_type": "U",
        "meta_norad_cat_id": 36180,
        "meta_element_set_no": 999,
        "meta_rev_at_epoch": 70486,
        "meta_bstar": 0.00091841135,
        "meta_mean_motion_dot": 2.432e-05,
        "meta_mean_motion_ddot": 0,
        "tle_line1": "1 36180U 99025DTD 25339.88984116  .00002432  00000+0  91841-3 0  9996",
        "tle_line2": "2 36180  98.4572  43.7979 0210627  50.8055 311.1621 14.20680074704867"
      },
      "geometry": {
        "type": "Point",
        "coordinates": [
          -128.92990128037945,
          -26.381682325202906
        ]
      }
    },
    {
      "type": "Feature",
      "properties": {
        "norad_id": 36182,
        "name": "FENGYUN 1C DEB",
        "group": "fengyun-1c-debris",
        "lat": -14.646382503604272,
        "lon": -77.87883226600955,
        "alt_km": 776.6015564724066,
        "timestamp": "2025-12-17T21:39:45.973661+00:00",
        "meta_object_name": "FENGYUN 1C DEB",
        "meta_object_id": "1999-025DTF",
        "meta_epoch": "2025-12-16T02:12:55.560672",
        "meta_mean_motion": 14.34751534,
        "meta_eccentricity": 0.00221182,
        "meta_inclination": 99.0884,
        "meta_ra_of_asc_node": 277.82,
        "meta_arg_of_pericenter": 66.524,
        "meta_mean_anomaly": 293.8265,
        "meta_ephemeris_type": 0,
        "meta_classification_type": "U",
        "meta_norad_cat_id": 36182,
        "meta_element_set_no": 999,
        "meta_rev_at_epoch": 88005,
        "meta_bstar": 0.0010939715,
        "meta_mean_motion_dot": 3.061e-05,
        "meta_mean_motion_ddot": 0,
        "tle_line1": "1 36182U 99025DTF 25350.09230973  .00003061  00000+0  10940-2 0  9998",
        "tle_line2": "2 36182  99.0884 277.8200 0022118  66.5240 293.8265 14.34751534880056"
      },
      "geometry": {
        "type": "Point",
        "coordinates": [
          -77.87883226600955,
          -14.646382503604272
        ]
      }
    },
    {
      "type": "Feature",
      "properties": {
        "norad_id": 36186,
        "name": "FENGYUN 1C DEB",
        "group": "fengyun-1c-debris",
        "lat": -32.591218609883065,
        "lon": 30.325001545030112,
        "alt_km": 535.19305326004,
        "timestamp": "2025-12-17T21:39:45.973670+00:00",
        "meta_object_name": "FENGYUN 1C DEB",
        "meta_object_id": "1999-025DTK",
        "meta_epoch": "2025-12-15T21:11:23.031744",
        "meta_mean_motion": 15.12863238,
        "meta_eccentricity": 0.00117449,
        "meta_inclination": 98.9868,
        "meta_ra_of_asc_node": 213.7545,
        "meta_arg_of_pericenter": 332.6772,
        "meta_mean_anomaly": 45.2682,
        "meta_ephemeris_type": 0,
        "meta_classification_type": "U",
        "meta_norad_cat_id": 36186,
        "meta_element_set_no": 999,
        "meta_rev_at_epoch": 61618,
        "meta_bstar": 0.0071053274,
        "meta_mean_motion_dot": 0.00127217,
        "meta_mean_motion_ddot": 0,
        "tle_line1": "1 36186U 99025DTK 25349.88290546  .00127217  00000+0  71053-2 0  9991",
        "tle_line2": "2 36186  98.9868 213.7545 0011744 332.6772  45.2682 15.12863238616186"
      },
      "geometry": {
        "type": "Point",
        "coordinates": [
          30.325001545030112,
          -32.591218609883065
        ]
      }
    },
    {
      "type": "Feature",
      "properties": {
        "norad_id": 36188,
        "name": "FENGYUN 1C DEB",
        "group": "fengyun-1c-debris",
        "lat": 7.229642431131598,
        "lon": -86.38865357042064,
        "alt_km": 707.3044165077454,
        "timestamp": "2025-12-17T21:39:45.973680+00:00",
        "meta_object_name": "FENGYUN 1C DEB",
        "meta_object_id": "1999-025DTM",
        "meta_epoch": "2025-12-16T00:29:05.104608",
        "meta_mean_motion": 14.60761478,
        "meta_eccentricity": 0.00478894,
        "meta_inclination": 98.5849,
        "meta_ra_of_asc_node": 90.5626,
        "meta_arg_of_pericenter": 294.3883,
        "meta_mean_anomaly": 65.2322,
        "meta_ephemeris_type": 0,
        "meta_classification_type": "U",
        "meta_norad_cat_id": 36188,
        "meta_element_set_no": 999,
        "meta_rev_at_epoch": 88100,
        "meta_bstar": 0.0017582447,
        "meta_mean_motion_dot": 8.674e-05,
        "meta_mean_motion_ddot": 0,
        "tle_line1": "1 36188U 99025DTM 25350.02019797  .00008674  00000+0  17582-2 0  9990",
        "tle_line2": "2 36188  98.5849  90.5626 0047889 294.3883  65.2322 14.60761478881003"
      },
      "geometry": {
        "type": "Point",
        "coordinates": [
          -86.38865357042064,
          7.229642431131598
        ]
      }
    },
    {
      "type": "Feature",
      "properties": {
        "norad_id": 36198,
        "name": "FENGYUN 1C DEB",
        "group": "fengyun-1c-debris",
        "lat": -6.662575710724814,
        "lon": 22.033070830272315,
        "alt_km": 890.6744027443101,
        "timestamp": "2025-12-17T21:39:45.973689+00:00",
        "meta_object_name": "FENGYUN 1C DEB",
        "meta_object_id": "1999-025DTX",
        "meta_epoch": "2025-12-17T13:10:00.796512",
        "meta_mean_motion": 14.07925497,
        "meta_eccentricity": 0.00967795,
        "meta_inclination": 98.6216,
        "meta_ra_of_asc_node": 20.6795,
        "meta_arg_of_pericenter": 101.8825,
        "meta_mean_anomaly": 259.3217,
        "meta_ephemeris_type": 0,
        "meta_classification_type": "U",
        "meta_norad_cat_id": 36198,
        "meta_element_set_no": 999,
        "meta_rev_at_epoch": 63655,
        "meta_bstar": 0.0010670002,
        "meta_mean_motion_dot": 1.851e-05,
        "meta_mean_motion_ddot": 0,
        "tle_line1": "1 36198U 99025DTX 25351.54862033  .00001851  00000+0  10670-2 0  9999",
        "tle_line2": "2 36198  98.6216  20.6795 0096779 101.8825 259.3217 14.07925497636555"
      },
      "geometry": {
        "type": "Point",
        "coordinates": [
          22.033070830272315,
          -6.662575710724814
        ]
      }
    }
  ]
}